1 08820U 76039A   03146.65970985  .00000017  00000-0  10000-3 0  9381
2 08820 109.8067 174.2343 0044653 305.9837  53.6748  6.38664577375686
